{
  "type": "FeatureCollection",
  "name": "Uganda boundary",
  "source": "Natural Earth 1:110m via datasets/geo-boundaries-world-110m",
  "features": [
    {
      "type": "Feature",
      "properties": {
        "name": "Uganda",
        "iso_a3": "UGA"
      },
      "geometry": {
        "type": "Polygon",
        "coordinates": [[
          [31.86617,-1.02736],[30.76986,-1.01455],[30.419104852,-1.134659112],[29.821518589,-1.443322442],[29.57946618,-1.341313165],[29.587837762,-0.587405694],[29.8195,-0.2053],[29.875778843,0.597379869],[30.086153599,1.06231273],[30.468507521,1.583805447],[30.852670119,1.849396471],[31.174149204,2.204465237],[30.77332,2.33989],[30.83385,3.50917],[31.24556,3.7819],[31.88145,3.55827],[32.68642,3.79232],[33.39,3.79],[34.005,4.249884947],[34.47913,3.5556],[34.59607,3.05374],[35.03599,1.90584],[34.6721,1.17694],[34.18,0.515],[33.89356897,0.109813538],[33.903711197,-0.95],[31.86617,-1.02736]
        ]]
      }
    }
  ]
}
